ONEWEB-0593             
1 54659U 22166T   25210.56593429 -.00000022  00000+0 -84317-4 0  9991
2 54659  87.9272 308.3472 0002014 105.0386 255.0971 13.21826438128922
ONEWEB-0594             
1 54660U 22166U   25210.50915998  .00000099  00000+0  20893-3 0  9996
2 54660  87.9275 308.3736 0002044  98.4990 261.6376 13.21825388128935
ONEWEB-0595             
1 54661U 22166V   25210.56277602  .00000064  00000+0  12372-3 0  9991
2 54661  87.9272 308.3393 0001855  95.0507 265.0838 13.21826708128914
ONEWEB-0596             
1 54662U 22166W   25210.83875300  .00000016  00000+0  82460-5 0  9995
2 54662  87.9274 308.2989 0001907 100.4881 259.6468 13.21825392129424
ONEWEB-0597             
1 54663U 22166X   25210.51705271 -.00000906  00000+0 -22269-2 0  9998
2 54663  87.9275 308.3661 0002127 104.0168 256.1202 13.21817331128912
ONEWEB-0600             
1 54664U 22166Y   25210.49970243  .00000061  00000+0  11636-3 0  9996
2 54664  87.9267 308.3658 0002135 102.0145 258.1228 13.21826371128882
ONEWEB-0601             
1 54665U 22166Z   25210.56750590  .00000063  00000+0  12045-3 0  9993
2 54665  87.9274 308.3670 0002060 110.0799 250.0556 13.21826847129082
ONEWEB-0602             
1 54666U 22166AA  25210.83559639  .00000072  00000+0  14293-3 0  9992
2 54666  87.9278 308.3144 0002227 103.6327 256.5055 13.21826114129434
ONEWEB-0603             
1 54667U 22166AB  25210.84033155 -.00002008  00000+0 -48937-2 0  9998
2 54667  87.9270 308.2503 0002135 108.5637 251.5729 13.21837167129355
ONEWEB-0604             
1 54668U 22166AC  25210.52493989  .00000168  00000+0  37543-3 0  9994
2 54668  87.9275 308.3351 0002200 103.5601 256.5778 13.21826314128813
ONEWEB-0605             
1 54669U 22166AD  25210.51861995  .00000119  00000+0  25741-3 0  9993
2 54669  87.9273 308.3674 0001923 120.4648 239.6676 13.21826092128889
ONEWEB-0606             
1 54670U 22166AE  25210.54070762  .00000158  00000+0  35155-3 0  9995
2 54670  87.9272 308.3739 0001922  95.4581 264.6772 13.21826312128945
ONEWEB-0607             
1 54671U 22166AF  25210.28050217  .00000042  00000+0  70922-4 0  9994
2 54671  87.9271 308.3901 0002070 104.0579 256.0785 13.21824457128885
ONEWEB-0608             
1 54672U 22166AG  25210.51388612  .00000111  00000+0  23689-3 0  9998
2 54672  87.9265 308.3301 0002187 114.5687 245.5675 13.21827893128921
ONEWEB-0610             
1 54673U 22166AH  25210.57065741 -.00000032  00000+0 -10785-3 0  9997
2 54673  87.9274 308.3527 0002198 115.5201 244.6160 13.21831750128833
ONEWEB-0611             
1 54674U 22166AJ  25210.56435248  .00000041  00000+0  68975-4 0  9993
2 54674  87.9271 308.3507 0002004  93.0293 267.1071 13.21826580128821
ONEWEB-0612             
1 54675U 22166AK  25210.50127628  .00000023  00000+0  23048-4 0  9990
2 54675  87.9273 308.3406 0002042 105.5761 254.5598 13.21825683128808
