[{"OBJECT_NAME":"ONEWEB-0593","OBJECT_ID":"2022-166T","EPOCH":"2025-07-29T13:34:56.722656","MEAN_MOTION":13.21826438,"ECCENTRICITY":0.0002014,"INCLINATION":87.9272,"RA_OF_ASC_NODE":308.3472,"ARG_OF_PERICENTER":105.0386,"MEAN_ANOMALY":255.0971,"EPHEMERIS_TYPE":0,"CLASSIFICATION_TYPE":"U","NORAD_CAT_ID":54659,"ELEMENT_SET_NO":999,"REV_AT_EPOCH":12892,"BSTAR":-8.4317e-5,"MEAN_MOTION_DOT":-2.2e-7,"MEAN_MOTION_DDOT":0},{"OBJECT_NAME":"ONEWEB-0594","OBJECT_ID":"2022-166U","EPOCH":"2025-07-29T12:13:11.422272","MEAN_MOTION":13.21825388,"ECCENTRICITY":0.0002044,"INCLINATION":87.9275,"RA_OF_ASC_NODE":308.3736,"ARG_OF_PERICENTER":98.499,"MEAN_ANOMALY":261.6376,"EPHEMERIS_TYPE":0,"CLASSIFICATION_TYPE":"U","NORAD_CAT_ID":54660,"ELEMENT_SET_NO":999,"REV_AT_EPOCH":12893,"BSTAR":0.00020893,"MEAN_MOTION_DOT":9.9e-7,"MEAN_MOTION_DDOT":0},{"OBJECT_NAME":"ONEWEB-0595","OBJECT_ID":"2022-166V","EPOCH":"2025-07-29T13:30:23.848128","MEAN_MOTION":13.21826708,"ECCENTRICITY":0.0001855,"INCLINATION":87.9272,"RA_OF_ASC_NODE":308.3393,"ARG_OF_PERICENTER":95.0507,"MEAN_ANOMALY":265.0838,"EPHEMERIS_TYPE":0,"CLASSIFICATION_TYPE":"U","NORAD_CAT_ID":54661,"ELEMENT_SET_NO":999,"REV_AT_EPOCH":12891,"BSTAR":0.00012372,"MEAN_MOTION_DOT":6.4e-7,"MEAN_MOTION_DDOT":0},{"OBJECT_NAME":"ONEWEB-0596","OBJECT_ID":"2022-166W","EPOCH":"2025-07-29T20:07:48.259200","MEAN_MOTION":13.21825392,"ECCENTRICITY":0.0001907,"INCLINATION":87.9274,"RA_OF_ASC_NODE":308.2989,"ARG_OF_PERICENTER":100.4881,"MEAN_ANOMALY":259.6468,"EPHEMERIS_TYPE":0,"CLASSIFICATION_TYPE":"U","NORAD_CAT_ID":54662,"ELEMENT_SET_NO":999,"REV_AT_EPOCH":12942,"BSTAR":8.246e-6,"MEAN_MOTION_DOT":1.6e-7,"MEAN_MOTION_DDOT":0},{"OBJECT_NAME":"ONEWEB-0597","OBJECT_ID":"2022-166X","EPOCH":"2025-07-29T12:24:33.354144","MEAN_MOTION":13.21817331,"ECCENTRICITY":0.0002127,"INCLINATION":87.9275,"RA_OF_ASC_NODE":308.3661,"ARG_OF_PERICENTER":104.0168,"MEAN_ANOMALY":256.1202,"EPHEMERIS_TYPE":0,"CLASSIFICATION_TYPE":"U","NORAD_CAT_ID":54663,"ELEMENT_SET_NO":999,"REV_AT_EPOCH":12891,"BSTAR":-0.0022269,"MEAN_MOTION_DOT":-9.06e-6,"MEAN_MOTION_DDOT":0},{"OBJECT_NAME":"ONEWEB-0600","OBJECT_ID":"2022-166Y","EPOCH":"2025-07-29T11:59:34.289952","MEAN_MOTION":13.21826371,"ECCENTRICITY":0.0002135,"INCLINATION":87.9267,"RA_OF_ASC_NODE":308.3658,"ARG_OF_PERICENTER":102.0145,"MEAN_ANOMALY":258.1228,"EPHEMERIS_TYPE":0,"CLASSIFICATION_TYPE":"U","NORAD_CAT_ID":54664,"ELEMENT_SET_NO":999,"REV_AT_EPOCH":12888,"BSTAR":0.00011636,"MEAN_MOTION_DOT":6.1e-7,"MEAN_MOTION_DDOT":0},{"OBJECT_NAME":"ONEWEB-0601","OBJECT_ID":"2022-166Z","EPOCH":"2025-07-29T13:37:12.509760","MEAN_MOTION":13.21826847,"ECCENTRICITY":0.000206,"INCLINATION":87.9274,"RA_OF_ASC_NODE":308.367,"ARG_OF_PERICENTER":110.0799,"MEAN_ANOMALY":250.0556,"EPHEMERIS_TYPE":0,"CLASSIFICATION_TYPE":"U","NORAD_CAT_ID":54665,"ELEMENT_SET_NO":999,"REV_AT_EPOCH":12908,"BSTAR":0.00012045,"MEAN_MOTION_DOT":6.3e-7,"MEAN_MOTION_DDOT":0},{"OBJECT_NAME":"ONEWEB-0602","OBJECT_ID":"2022-166AA","EPOCH":"2025-07-29T20:03:15.528096","MEAN_MOTION":13.21826114,"ECCENTRICITY":0.0002227,"INCLINATION":87.9278,"RA_OF_ASC_NODE":308.3144,"ARG_OF_PERICENTER":103.6327,"MEAN_ANOMALY":256.5055,"EPHEMERIS_TYPE":0,"CLASSIFICATION_TYPE":"U","NORAD_CAT_ID":54666,"ELEMENT_SET_NO":999,"REV_AT_EPOCH":12943,"BSTAR":0.00014293,"MEAN_MOTION_DOT":7.2e-7,"MEAN_MOTION_DDOT":0},{"OBJECT_NAME":"ONEWEB-0603","OBJECT_ID":"2022-166AB","EPOCH":"2025-07-29T20:10:04.645920","MEAN_MOTION":13.21837167,"ECCENTRICITY":0.0002135,"INCLINATION":87.927,"RA_OF_ASC_NODE":308.2503,"ARG_OF_PERICENTER":108.5637,"MEAN_ANOMALY":251.5729,"EPHEMERIS_TYPE":0,"CLASSIFICATION_TYPE":"U","NORAD_CAT_ID":54667,"ELEMENT_SET_NO":999,"REV_AT_EPOCH":12935,"BSTAR":-0.0048937,"MEAN_MOTION_DOT":-2.008e-5,"MEAN_MOTION_DDOT":0},{"OBJECT_NAME":"ONEWEB-0604","OBJECT_ID":"2022-166AC","EPOCH":"2025-07-29T12:35:54.806496","MEAN_MOTION":13.21826314,"ECCENTRICITY":0.00022,"INCLINATION":87.9275,"RA_OF_ASC_NODE":308.3351,"ARG_OF_PERICENTER":103.5601,"MEAN_ANOMALY":256.5778,"EPHEMERIS_TYPE":0,"CLASSIFICATION_TYPE":"U","NORAD_CAT_ID":54668,"ELEMENT_SET_NO":999,"REV_AT_EPOCH":12881,"BSTAR":0.00037543,"MEAN_MOTION_DOT":1.68e-6,"MEAN_MOTION_DDOT":0},{"OBJECT_NAME":"ONEWEB-0605","OBJECT_ID":"2022-166AD","EPOCH":"2025-07-29T12:26:48.763680","MEAN_MOTION":13.21826092,"ECCENTRICITY":0.0001923,"INCLINATION":87.9273,"RA_OF_ASC_NODE":308.3674,"ARG_OF_PERICENTER":120.4648,"MEAN_ANOMALY":239.6676,"EPHEMERIS_TYPE":0,"CLASSIFICATION_TYPE":"U","NORAD_CAT_ID":54669,"ELEMENT_SET_NO":999,"REV_AT_EPOCH":12888,"BSTAR":0.00025741,"MEAN_MOTION_DOT":1.19e-6,"MEAN_MOTION_DDOT":0},{"OBJECT_NAME":"ONEWEB-0606","OBJECT_ID":"2022-166AE","EPOCH":"2025-07-29T12:58:37.138368","MEAN_MOTION":13.21826312,"ECCENTRICITY":0.0001922,"INCLINATION":87.9272,"RA_OF_ASC_NODE":308.3739,"ARG_OF_PERICENTER":95.4581,"MEAN_ANOMALY":264.6772,"EPHEMERIS_TYPE":0,"CLASSIFICATION_TYPE":"U","NORAD_CAT_ID":54670,"ELEMENT_SET_NO":999,"REV_AT_EPOCH":12894,"BSTAR":0.00035155,"MEAN_MOTION_DOT":1.58e-6,"MEAN_MOTION_DDOT":0},{"OBJECT_NAME":"ONEWEB-0607","OBJECT_ID":"2022-166AF","EPOCH":"2025-07-29T06:43:55.387488","MEAN_MOTION":13.21824457,"ECCENTRICITY":0.000207,"INCLINATION":87.9271,"RA_OF_ASC_NODE":308.3901,"ARG_OF_PERICENTER":104.0579,"MEAN_ANOMALY":256.0785,"EPHEMERIS_TYPE":0,"CLASSIFICATION_TYPE":"U","NORAD_CAT_ID":54671,"ELEMENT_SET_NO":999,"REV_AT_EPOCH":12888,"BSTAR":7.0922e-5,"MEAN_MOTION_DOT":4.2e-7,"MEAN_MOTION_DDOT":0},{"OBJECT_NAME":"ONEWEB-0608","OBJECT_ID":"2022-166AG","EPOCH":"2025-07-29T12:19:59.760768","MEAN_MOTION":13.21827893,"ECCENTRICITY":0.0002187,"INCLINATION":87.9265,"RA_OF_ASC_NODE":308.3301,"ARG_OF_PERICENTER":114.5687,"MEAN_ANOMALY":245.5675,"EPHEMERIS_TYPE":0,"CLASSIFICATION_TYPE":"U","NORAD_CAT_ID":54672,"ELEMENT_SET_NO":999,"REV_AT_EPOCH":12892,"BSTAR":0.00023689,"MEAN_MOTION_DOT":1.11e-6,"MEAN_MOTION_DDOT":0},{"OBJECT_NAME":"ONEWEB-0610","OBJECT_ID":"2022-166AH","EPOCH":"2025-07-29T13:41:44.800224","MEAN_MOTION":13.2183175,"ECCENTRICITY":0.0002198,"INCLINATION":87.9274,"RA_OF_ASC_NODE":308.3527,"ARG_OF_PERICENTER":115.5201,"MEAN_ANOMALY":244.616,"EPHEMERIS_TYPE":0,"CLASSIFICATION_TYPE":"U","NORAD_CAT_ID":54673,"ELEMENT_SET_NO":999,"REV_AT_EPOCH":12883,"BSTAR":-0.00010785,"MEAN_MOTION_DOT":-3.2e-7,"MEAN_MOTION_DDOT":0},{"OBJECT_NAME":"ONEWEB-0611","OBJECT_ID":"2022-166AJ","EPOCH":"2025-07-29T13:32:40.054272","MEAN_MOTION":13.2182658,"ECCENTRICITY":0.0002004,"INCLINATION":87.9271,"RA_OF_ASC_NODE":308.3507,"ARG_OF_PERICENTER":93.0293,"MEAN_ANOMALY":267.1071,"EPHEMERIS_TYPE":0,"CLASSIFICATION_TYPE":"U","NORAD_CAT_ID":54674,"ELEMENT_SET_NO":999,"REV_AT_EPOCH":12882,"BSTAR":6.8975e-5,"MEAN_MOTION_DOT":4.1e-7,"MEAN_MOTION_DDOT":0},{"OBJECT_NAME":"ONEWEB-0612","OBJECT_ID":"2022-166AK","EPOCH":"2025-07-29T12:01:50.270592","MEAN_MOTION":13.21825683,"ECCENTRICITY":0.0002042,"INCLINATION":87.9273,"RA_OF_ASC_NODE":308.3406,"ARG_OF_PERICENTER":105.5761,"MEAN_ANOMALY":254.5598,"EPHEMERIS_TYPE":0,"CLASSIFICATION_TYPE":"U","NORAD_CAT_ID":54675,"ELEMENT_SET_NO":999,"REV_AT_EPOCH":12880,"BSTAR":2.3048e-5,"MEAN_MOTION_DOT":2.3e-7,"MEAN_MOTION_DDOT":0}]
